{
  "type": "FeatureCollection",
  "features": [
    {
      "type": "Feature",
      "properties": {
        "zone": "A",
        "name": "Khu A – Ba Thê / Linh Sơn",
        "status": "illustrative"
      },
      "geometry": {
        "type": "Polygon",
        "coordinates": [
          [
            [
              105.1354,
              10.2639
            ],
            [
              105.1513,
              10.2661
            ],
            [
              105.159,
              10.255
            ],
            [
              105.1581,
              10.2413
            ],
            [
              105.1472,
              10.2378
            ],
            [
              105.1342,
              10.2447
            ],
            [
              105.1313,
              10.2548
            ],
            [
              105.1354,
              10.2639
            ]
          ]
        ]
      }
    },
    {
      "type": "Feature",
      "properties": {
        "zone": "B",
        "name": "Khu B – Óc Eo trung tâm",
        "status": "illustrative"
      },
      "geometry": {
        "type": "Polygon",
        "coordinates": [
          [
            [
              105.1488,
              10.266
            ],
            [
              105.1655,
              10.267
            ],
            [
              105.171,
              10.2548
            ],
            [
              105.166,
              10.2418
            ],
            [
              105.155,
              10.2405
            ],
            [
              105.147,
              10.2502
            ],
            [
              105.1488,
              10.266
            ]
          ]
        ]
      }
    },
    {
      "type": "Feature",
      "properties": {
        "zone": "C",
        "name": "Khu C – Đồng bằng phía đông",
        "status": "illustrative"
      },
      "geometry": {
        "type": "Polygon",
        "coordinates": [
          [
            [
              105.1646,
              10.265
            ],
            [
              105.1838,
              10.2605
            ],
            [
              105.1844,
              10.2465
            ],
            [
              105.175,
              10.2362
            ],
            [
              105.1638,
              10.242
            ],
            [
              105.1646,
              10.265
            ]
          ]
        ]
      }
    },
    {
      "type": "Feature",
      "properties": {
        "zone": "D",
        "name": "Khu D – Hành lang phía nam",
        "status": "illustrative"
      },
      "geometry": {
        "type": "Polygon",
        "coordinates": [
          [
            [
              105.145,
              10.244
            ],
            [
              105.158,
              10.2415
            ],
            [
              105.174,
              10.2352
            ],
            [
              105.1703,
              10.2268
            ],
            [
              105.1511,
              10.2285
            ],
            [
              105.1415,
              10.2368
            ],
            [
              105.145,
              10.244
            ]
          ]
        ]
      }
    }
  ]
}